[{"OBJECT_NAME":"IRIDIUM 172","OBJECT_ID":"2019-002F","EPOCH":"2026-03-09T21:35:38.790528","MEAN_MOTION":14.34217807,"ECCENTRICITY":0.00023275,"INCLINATION":86.397,"RA_OF_ASC_NODE":35.0518,"ARG_OF_PERICENTER":84.9159,"MEAN_ANOMALY":275.2302,"EPHEMERIS_TYPE":0,"CLASSIFICATION_TYPE":"U","NORAD_CAT_ID":43927,"ELEMENT_SET_NO":999,"REV_AT_EPOCH":37473,"BSTAR":0.00014166362,"MEAN_MOTION_DOT":4.17e-6,"MEAN_MOTION_DDOT":0},{"OBJECT_NAME":"DELTA 1 DEB","OBJECT_ID":"1978-026J","EPOCH":"2026-03-09T15:23:55.601664","MEAN_MOTION":14.33783254,"ECCENTRICITY":0.0068144,"INCLINATION":98.7146,"RA_OF_ASC_NODE":93.5053,"ARG_OF_PERICENTER":16.7088,"MEAN_ANOMALY":102.7076,"EPHEMERIS_TYPE":0,"CLASSIFICATION_TYPE":"U","NORAD_CAT_ID":12169,"ELEMENT_SET_NO":999,"REV_AT_EPOCH":34603,"BSTAR":0.00029038,"MEAN_MOTION_DOT":7.83e-6,"MEAN_MOTION_DDOT":0}]
